[
    {
        "Altitude(m)": 612513.9589986745,
        "Argument of Periapsis(deg)": 0.0,
        "Eccentricity": 0.0,
        "Inclination(deg)": 60.0,
        "Latitude(deg)": -28.13605187828866,
        "Longitude(deg)": -102.08690075697909,
        "Mean Anomaly(deg)": -147.27270000000001,
        "RAAN(deg)": 160.0,
        "Satellite Name": "Test1 717",
        "Satellite Number": 717,
        "Semi-Major Axis(m)": 6980739.136638005,
        "Time(s)": 0
    },
    {
        "Altitude(m)": 612708.3273531434,
        "Argument of Periapsis(deg)": 0.00010418945913296404,
        "Eccentricity": 0.0,
        "Inclination(deg)": 60.0,
        "Latitude(deg)": -28.6477912116462,
        "Longitude(deg)": -101.7296704188062,
        "Mean Anomaly(deg)": -146.65259385453817,
        "RAAN(deg)": 159.99957995086024,
        "Satellite Name": "Test1 717",
        "Satellite Number": 717,
        "Semi-Major Axis(m)": 6980739.136638005,
        "Time(s)": 10
    }
]